CREW DRAGON 12          
1 67796U 26031A   26065.22200803  .00008136  00000+0  15844-3 0  9995
2 67796  51.6317  89.5003 0008136 162.2758 197.8515 15.48470661555670
